[{"OBJECT_NAME":"STARLINK-2376","OBJECT_ID":"2021-021BH","EPOCH":"2023-02-02T02:16:37.694208","MEAN_MOTION":15.06395142,"ECCENTRICITY":0.0001434,"INCLINATION":53.0564,"RA_OF_ASC_NODE":316.5473,"ARG_OF_PERICENTER":106.4426,"MEAN_ANOMALY":253.6721,"EPHEMERIS_TYPE":0,"CLASSIFICATION_TYPE":"U","NORAD_CAT_ID":47915,"ELEMENT_SET_NO":999,"REV_AT_EPOCH":10508,"BSTAR":-8.2556e-5,"MEAN_MOTION_DOT":-1.511e-5,"MEAN_MOTION_DDOT":0},{"OBJECT_NAME":"STARLINK-2378","OBJECT_ID":"2021-021BJ","EPOCH":"2023-02-02T01:38:47.766624","MEAN_MOTION":15.06398651,"ECCENTRICITY":0.000138,"INCLINATION":53.0542,"RA_OF_ASC_NODE":301.6657,"ARG_OF_PERICENTER":102.8224,"MEAN_ANOMALY":257.2919,"EPHEMERIS_TYPE":0,"CLASSIFICATION_TYPE":"U","NORAD_CAT_ID":47916,"ELEMENT_SET_NO":999,"REV_AT_EPOCH":10529,"BSTAR":2.3628e-5,"MEAN_MOTION_DOT":7.0e-7,"MEAN_MOTION_DDOT":0},{"OBJECT_NAME":"STARLINK-2397","OBJECT_ID":"2021-021BK","EPOCH":"2023-02-02T03:23:37.474080","MEAN_MOTION":15.06397637,"ECCENTRICITY":0.0001329,"INCLINATION":53.0566,"RA_OF_ASC_NODE":311.3348,"ARG_OF_PERICENTER":100.101,"MEAN_ANOMALY":260.0129,"EPHEMERIS_TYPE":0,"CLASSIFICATION_TYPE":"U","NORAD_CAT_ID":47917,"ELEMENT_SET_NO":999,"REV_AT_EPOCH":10516,"BSTAR":-3.157e-5,"MEAN_MOTION_DOT":-7.52e-6,"MEAN_MOTION_DDOT":0},{"OBJECT_NAME":"STARLINK-2398","OBJECT_ID":"2021-021BL","EPOCH":"2023-02-02T03:34:14.245536","MEAN_MOTION":15.06404365,"ECCENTRICITY":0.00016,"INCLINATION":53.0559,"RA_OF_ASC_NODE":311.3072,"ARG_OF_PERICENTER":112.6305,"MEAN_ANOMALY":247.4853,"EPHEMERIS_TYPE":0,"CLASSIFICATION_TYPE":"U","NORAD_CAT_ID":47918,"ELEMENT_SET_NO":999,"REV_AT_EPOCH":10516,"BSTAR":-1.7404e-5,"MEAN_MOTION_DOT":-5.41e-6,"MEAN_MOTION_DDOT":0},{"OBJECT_NAME":"STARLINK-2405","OBJECT_ID":"2021-021BM","EPOCH":"2023-02-01T17:38:26.871072","MEAN_MOTION":15.06399409,"ECCENTRICITY":0.0001551,"INCLINATION":53.0514,"RA_OF_ASC_NODE":323.1659,"ARG_OF_PERICENTER":86.7252,"MEAN_ANOMALY":273.3914,"EPHEMERIS_TYPE":0,"CLASSIFICATION_TYPE":"U","NORAD_CAT_ID":47919,"ELEMENT_SET_NO":999,"REV_AT_EPOCH":10494,"BSTAR":0.00010628,"MEAN_MOTION_DOT":1.302e-5,"MEAN_MOTION_DDOT":0},{"OBJECT_NAME":"CAS500-1","OBJECT_ID":"2021-022A","EPOCH":"2023-02-01T08:08:02.518656","MEAN_MOTION":15.2105122,"ECCENTRICITY":0.0005502,"INCLINATION":97.4179,"RA_OF_ASC_NODE":294.2006,"ARG_OF_PERICENTER":25.738,"MEAN_ANOMALY":83.1944,"EPHEMERIS_TYPE":0,"CLASSIFICATION_TYPE":"U","NORAD_CAT_ID":47932,"ELEMENT_SET_NO":999,"REV_AT_EPOCH":10357,"BSTAR":7.189e-5,"MEAN_MOTION_DOT":1.528e-5,"MEAN_MOTION_DDOT":0},{"OBJECT_NAME":"GRUS-1C","OBJECT_ID":"2021-022B","EPOCH":"2023-02-02T01:41:22.518528","MEAN_MOTION":14.93938526,"ECCENTRICITY":0.0020653,"INCLINATION":97.6778,"RA_OF_ASC_NODE":293.2114,"ARG_OF_PERICENTER":128.3028,"MEAN_ANOMALY":232.0065,"EPHEMERIS_TYPE":0,"CLASSIFICATION_TYPE":"U","NORAD_CAT_ID":47933,"ELEMENT_SET_NO":999,"REV_AT_EPOCH":10174,"BSTAR":0.00015914,"MEAN_MOTION_DOT":1.644e-5,"MEAN_MOTION_DDOT":0},{"OBJECT_NAME":"GRUS-1B","OBJECT_ID":"2021-022C","EPOCH":"2023-02-02T02:40:02.885664","MEAN_MOTION":14.93933397,"ECCENTRICITY":0.0020303,"INCLINATION":97.6786,"RA_OF_ASC_NODE":293.2289,"ARG_OF_PERICENTER":125.312,"MEAN_ANOMALY":234.9994,"EPHEMERIS_TYPE":0,"CLASSIFICATION_TYPE":"U","NORAD_CAT_ID":47934,"ELEMENT_SET_NO":999,"REV_AT_EPOCH":10174,"BSTAR":0.0001115,"MEAN_MOTION_DOT":1.134e-5,"MEAN_MOTION_DDOT":0},{"OBJECT_NAME":"GRUS-1E","OBJECT_ID":"2021-022D","EPOCH":"2023-02-02T01:20:15.942912","MEAN_MOTION":14.93941161,"ECCENTRICITY":0.0020199,"INCLINATION":97.6799,"RA_OF_ASC_NODE":293.3907,"ARG_OF_PERICENTER":127.8494,"MEAN_ANOMALY":232.457,"EPHEMERIS_TYPE":0,"CLASSIFICATION_TYPE":"U","NORAD_CAT_ID":47935,"ELEMENT_SET_NO":999,"REV_AT_EPOCH":10174,"BSTAR":0.00011344,"MEAN_MOTION_DOT":1.155e-5,"MEAN_MOTION_DDOT":0},{"OBJECT_NAME":"GRUS-1D","OBJECT_ID":"2021-022E","EPOCH":"2023-02-02T01:59:18.884544","MEAN_MOTION":14.9394404,"ECCENTRICITY":0.0020824,"INCLINATION":97.679,"RA_OF_ASC_NODE":293.2838,"ARG_OF_PERICENTER":127.7213,"MEAN_ANOMALY":232.5902,"EPHEMERIS_TYPE":0,"CLASSIFICATION_TYPE":"U","NORAD_CAT_ID":47936,"ELEMENT_SET_NO":999,"REV_AT_EPOCH":10174,"BSTAR":0.00019886,"MEAN_MOTION_DOT":2.069e-5,"MEAN_MOTION_DDOT":0},{"OBJECT_NAME":"DMSAT-1","OBJECT_ID":"2021-022J","EPOCH":"2023-02-02T04:32:01.272768","MEAN_MOTION":15.11593059,"ECCENTRICITY":0.0018796,"INCLINATION":97.5116,"RA_OF_ASC_NODE":293.9473,"ARG_OF_PERICENTER":70.3872,"MEAN_ANOMALY":81.9944,"EPHEMERIS_TYPE":0,"CLASSIFICATION_TYPE":"U","NORAD_CAT_ID":47940,"ELEMENT_SET_NO":999,"REV_AT_EPOCH":10271,"BSTAR":0.00053049,"MEAN_MOTION_DOT":8.984e-5,"MEAN_MOTION_DDOT":0},{"OBJECT_NAME":"WILDTRACKCUBE-SIMBA","OBJECT_ID":"2021-022K","EPOCH":"2023-02-02T03:55:11.118432","MEAN_MOTION":15.0946482,"ECCENTRICITY":0.0022152,"INCLINATION":97.5122,"RA_OF_ASC_NODE":292.7855,"ARG_OF_PERICENTER":80.2337,"MEAN_ANOMALY":77.4731,"EPHEMERIS_TYPE":0,"CLASSIFICATION_TYPE":"U","NORAD_CAT_ID":47941,"ELEMENT_SET_NO":999,"REV_AT_EPOCH":10261,"BSTAR":0.00037867,"MEAN_MOTION_DOT":6.035e-5,"MEAN_MOTION_DDOT":0},{"OBJECT_NAME":"HIBER-3","OBJECT_ID":"2021-022L","EPOCH":"2023-02-01T07:15:30.697632","MEAN_MOTION":15.11147578,"ECCENTRICITY":0.0020969,"INCLINATION":97.5104,"RA_OF_ASC_NODE":292.3505,"ARG_OF_PERICENTER":80.7043,"MEAN_ANOMALY":279.6557,"EPHEMERIS_TYPE":0,"CLASSIFICATION_TYPE":"U","NORAD_CAT_ID":47942,"ELEMENT_SET_NO":999,"REV_AT_EPOCH":10253,"BSTAR":0.0005052,"MEAN_MOTION_DOT":8.455e-5,"MEAN_MOTION_DDOT":0},{"OBJECT_NAME":"ELSA-D","OBJECT_ID":"2021-022N","EPOCH":"2023-02-01T11:56:43.583424","MEAN_MOTION":15.10853933,"ECCENTRICITY":0.0019385,"INCLINATION":97.5109,"RA_OF_ASC_NODE":292.702,"ARG_OF_PERICENTER":75.7205,"MEAN_ANOMALY":284.6176,"EPHEMERIS_TYPE":0,"CLASSIFICATION_TYPE":"U","NORAD_CAT_ID":47944,"ELEMENT_SET_NO":999,"REV_AT_EPOCH":10258,"BSTAR":0.00035556,"MEAN_MOTION_DOT":5.877e-5,"MEAN_MOTION_DDOT":0},{"OBJECT_NAME":"UNISAT-7","OBJECT_ID":"2021-022P","EPOCH":"2023-02-01T11:54:06.042528","MEAN_MOTION":15.09415795,"ECCENTRICITY":0.0019205,"INCLINATION":97.5108,"RA_OF_ASC_NODE":292.5729,"ARG_OF_PERICENTER":75.1668,"MEAN_ANOMALY":285.1686,"EPHEMERIS_TYPE":0,"CLASSIFICATION_TYPE":"U","NORAD_CAT_ID":47945,"ELEMENT_SET_NO":999,"REV_AT_EPOCH":10244,"BSTAR":0.00023527,"MEAN_MOTION_DOT":3.714e-5,"MEAN_MOTION_DDOT":0},{"OBJECT_NAME":"LACUNASAT-2B","OBJECT_ID":"2021-022S","EPOCH":"2023-02-01T06:36:53.572320","MEAN_MOTION":15.15277846,"ECCENTRICITY":0.0020179,"INCLINATION":97.5196,"RA_OF_ASC_NODE":294.2735,"ARG_OF_PERICENTER":76.6367,"MEAN_ANOMALY":283.7113,"EPHEMERIS_TYPE":0,"CLASSIFICATION_TYPE":"U","NORAD_CAT_ID":47948,"ELEMENT_SET_NO":999,"REV_AT_EPOCH":10248,"BSTAR":0.00094278,"MEAN_MOTION_DOT":0.00017793,"MEAN_MOTION_DDOT":0},{"OBJECT_NAME":"KEPLER-7 (C3PO)","OBJECT_ID":"2021-022T","EPOCH":"2023-02-01T06:18:30.417120","MEAN_MOTION":15.12106715,"ECCENTRICITY":0.0021016,"INCLINATION":97.5114,"RA_OF_ASC_NODE":292.4685,"ARG_OF_PERICENTER":81.6308,"MEAN_ANOMALY":278.7304,"EPHEMERIS_TYPE":0,"CLASSIFICATION_TYPE":"U","NORAD_CAT_ID":47949,"ELEMENT_SET_NO":999,"REV_AT_EPOCH":10253,"BSTAR":0.00069117,"MEAN_MOTION_DOT":0.00011911,"MEAN_MOTION_DDOT":0},{"OBJECT_NAME":"NANOSATC-BR2","OBJECT_ID":"2021-022U","EPOCH":"2023-02-02T05:12:15.940224","MEAN_MOTION":15.11127947,"ECCENTRICITY":0.002157,"INCLINATION":97.5086,"RA_OF_ASC_NODE":293.0368,"ARG_OF_PERICENTER":79.8953,"MEAN_ANOMALY":40.1448,"EPHEMERIS_TYPE":0,"CLASSIFICATION_TYPE":"U","NORAD_CAT_ID":47950,"ELEMENT_SET_NO":999,"REV_AT_EPOCH":10265,"BSTAR":0.00055883,"MEAN_MOTION_DOT":9.358e-5,"MEAN_MOTION_DDOT":0},{"OBJECT_NAME":"CUBESX-SIRIUS-HSE","OBJECT_ID":"2021-022V","EPOCH":"2023-02-02T03:47:12.516864","MEAN_MOTION":15.10089608,"ECCENTRICITY":0.0022077,"INCLINATION":97.5118,"RA_OF_ASC_NODE":292.8987,"ARG_OF_PERICENTER":79.0931,"MEAN_ANOMALY":80.2008,"EPHEMERIS_TYPE":0,"CLASSIFICATION_TYPE":"U","NORAD_CAT_ID":47951,"ELEMENT_SET_NO":999,"REV_AT_EPOCH":10262,"BSTAR":0.00045681,"MEAN_MOTION_DOT":7.421e-5,"MEAN_MOTION_DDOT":0},{"OBJECT_NAME":"CUBESX-HSE","OBJECT_ID":"2021-022W","EPOCH":"2023-02-02T04:41:46.042656","MEAN_MOTION":15.10152332,"ECCENTRICITY":0.0022034,"INCLINATION":97.5128,"RA_OF_ASC_NODE":292.9729,"ARG_OF_PERICENTER":79.7238,"MEAN_ANOMALY":41.0374,"EPHEMERIS_TYPE":0,"CLASSIFICATION_TYPE":"U","NORAD_CAT_ID":47952,"ELEMENT_SET_NO":999,"REV_AT_EPOCH":10263,"BSTAR":0.00050308,"MEAN_MOTION_DOT":8.194e-5,"MEAN_MOTION_DDOT":0},{"OBJECT_NAME":"KSU-CUBESAT","OBJECT_ID":"2021-022Y","EPOCH":"2023-02-01T07:01:55.619904","MEAN_MOTION":15.1061839,"ECCENTRICITY":0.0021667,"INCLINATION":97.513,"RA_OF_ASC_NODE":292.3139,"ARG_OF_PERICENTER":81.9079,"MEAN_ANOMALY":278.4607,"EPHEMERIS_TYPE":0,"CLASSIFICATION_TYPE":"U","NORAD_CAT_ID":47954,"ELEMENT_SET_NO":999,"REV_AT_EPOCH":10223,"BSTAR":0.00044134,"MEAN_MOTION_DOT":7.272e-5,"MEAN_MOTION_DDOT":0},{"OBJECT_NAME":"KEPLER-6 (ROCINANTE)","OBJECT_ID":"2021-022Z","EPOCH":"2023-02-01T15:02:02.999904","MEAN_MOTION":15.10619676,"ECCENTRICITY":0.0021702,"INCLINATION":97.5117,"RA_OF_ASC_NODE":292.7612,"ARG_OF_PERICENTER":80.3638,"MEAN_ANOMALY":280.0042,"EPHEMERIS_TYPE":0,"CLASSIFICATION_TYPE":"U","NORAD_CAT_ID":47955,"ELEMENT_SET_NO":999,"REV_AT_EPOCH":10230,"BSTAR":0.00019929,"MEAN_MOTION_DOT":3.247e-5,"MEAN_MOTION_DDOT":0},{"OBJECT_NAME":"CHALLENGE ONE","OBJECT_ID":"2021-022AA","EPOCH":"2023-02-01T23:14:48.951168","MEAN_MOTION":15.10152079,"ECCENTRICITY":0.0022711,"INCLINATION":97.5136,"RA_OF_ASC_NODE":292.6811,"ARG_OF_PERICENTER":82.3999,"MEAN_ANOMALY":277.9809,"EPHEMERIS_TYPE":0,"CLASSIFICATION_TYPE":"U","NORAD_CAT_ID":47956,"ELEMENT_SET_NO":999,"REV_AT_EPOCH":10238,"BSTAR":0.00040206,"MEAN_MOTION_DOT":6.537e-5,"MEAN_MOTION_DDOT":0}]
